STARLINK-35725          
1 67565U 26016E   26048.25844910  .00077169  00000+0  51342-3 0  9994
2 67565  97.2831 107.6850 0001576  74.5337 285.6103 15.75197069  3587
STARLINK-36394          
1 67566U 26016F   26048.26021603  .00154349  00000+0  10159-2 0  9998
2 67566  97.2843 107.6788 0001921 111.9286 248.2184 15.75217592  3582
STARLINK-36352          
1 67567U 26016G   26048.23970413  .00191750  00000+0  97650-3 0  9997
2 67567  97.2832 107.7073 0002014 108.2499 251.8989 15.80892771  3585
STARLINK-36435          
1 67568U 26016H   26048.23745347  .00105599  00000+0  54448-3 0  9998
2 67568  97.2838 107.7098 0000205 115.7857 244.3432 15.80852902  3582
STARLINK-36575          
1 67569U 26016J   26048.23624594  .00138341  00000+0  71018-3 0  9992
2 67569  97.2825 107.7152 0001658 108.7025 251.4424 15.80858883  3586
STARLINK-36562          
1 67570U 26016K   26048.23533478  .00189572  00000+0  96631-3 0  9994
2 67570  97.2826 107.7158 0001729  77.3071 282.8390 15.80878451  3589
STARLINK-36578          
1 67571U 26016L   26048.26233022  .00079367  00000+0  52773-3 0  9999
2 67571  97.2836 107.6782 0001392 113.0993 247.0419 15.75203777  3582
STARLINK-36350          
1 67572U 26016M   26048.25456597  .00133438  00000+0  88050-3 0  9990
2 67572  97.2838 107.6870 0001603  91.8678 268.2771 15.75218376  3588
STARLINK-36588          
1 67573U 26016N   26048.25668432  .00094518  00000+0  62681-3 0  9991
2 67573  97.2838 107.6855 0001707  86.9352 273.2108 15.75217627  3589
STARLINK-36594          
1 67574U 26016P   26048.16732071  .00193190  00000+0  98388-3 0  9992
2 67574  97.2832 107.6540 0001406  71.3383 288.8038 15.80888730  3571
STARLINK-36400          
1 67575U 26016Q   26048.25002315 -.00189180  00000+0 -12903-2 0  9998
2 67575  97.2836 107.7207 0001356  79.6159 342.7316 15.75287064  4705
STARLINK-36591          
1 67576U 26016R   26048.29201367 -.00632328  00000+0 -36800-2 0  9990
2 67576  97.2837 107.7907 0001717   8.2655 351.8641 15.80001560  3593
