CCSDS_OMM_VERS = 2.0
CREATION_DATE  = 
ORIGINATOR     = 

OBJECT_NAME    = STARLINK-35725
OBJECT_ID      = 2026-016E
CENTER_NAME    = EARTH
REF_FRAME      = TEME
TIME_SYSTEM    = UTC
MEAN_ELEMENT_THEORY = SGP/SGP4

EPOCH          = 2026-02-17T06:12:10.002240
MEAN_MOTION    = 15.75197069
ECCENTRICITY   = .00015763
INCLINATION    = 97.2831
RA_OF_ASC_NODE = 107.6850
ARG_OF_PERICENTER = 74.5337
MEAN_ANOMALY   = 285.6103

EPHEMERIS_TYPE = 0
CLASSIFICATION_TYPE = U
NORAD_CAT_ID   = 67565
ELEMENT_SET_NO = 999
REV_AT_EPOCH   = 358
BSTAR          = .5134166E-3
MEAN_MOTION_DOT = .77169E-3
MEAN_MOTION_DDOT = 0

CCSDS_OMM_VERS = 2.0
CREATION_DATE  = 
ORIGINATOR     = 

OBJECT_NAME    = STARLINK-36394
OBJECT_ID      = 2026-016F
CENTER_NAME    = EARTH
REF_FRAME      = TEME
TIME_SYSTEM    = UTC
MEAN_ELEMENT_THEORY = SGP/SGP4

EPOCH          = 2026-02-17T06:14:42.664992
MEAN_MOTION    = 15.75217592
ECCENTRICITY   = .00019218
INCLINATION    = 97.2843
RA_OF_ASC_NODE = 107.6788
ARG_OF_PERICENTER = 111.9286
MEAN_ANOMALY   = 248.2184

EPHEMERIS_TYPE = 0
CLASSIFICATION_TYPE = U
NORAD_CAT_ID   = 67566
ELEMENT_SET_NO = 999
REV_AT_EPOCH   = 358
BSTAR          = .10158588E-2
MEAN_MOTION_DOT = .154349E-2
MEAN_MOTION_DDOT = 0

CCSDS_OMM_VERS = 2.0
CREATION_DATE  = 
ORIGINATOR     = 

OBJECT_NAME    = STARLINK-36352
OBJECT_ID      = 2026-016G
CENTER_NAME    = EARTH
REF_FRAME      = TEME
TIME_SYSTEM    = UTC
MEAN_ELEMENT_THEORY = SGP/SGP4

EPOCH          = 2026-02-17T05:45:10.436832
MEAN_MOTION    = 15.80892771
ECCENTRICITY   = .00020143
INCLINATION    = 97.2832
RA_OF_ASC_NODE = 107.7073
ARG_OF_PERICENTER = 108.2499
MEAN_ANOMALY   = 251.8989

EPHEMERIS_TYPE = 0
CLASSIFICATION_TYPE = U
NORAD_CAT_ID   = 67567
ELEMENT_SET_NO = 999
REV_AT_EPOCH   = 358
BSTAR          = .97650423E-3
MEAN_MOTION_DOT = .19175E-2
MEAN_MOTION_DDOT = 0

CCSDS_OMM_VERS = 2.0
CREATION_DATE  = 
ORIGINATOR     = 

OBJECT_NAME    = STARLINK-36435
OBJECT_ID      = 2026-016H
CENTER_NAME    = EARTH
REF_FRAME      = TEME
TIME_SYSTEM    = UTC
MEAN_ELEMENT_THEORY = SGP/SGP4

EPOCH          = 2026-02-17T05:41:55.979808
MEAN_MOTION    = 15.80852902
ECCENTRICITY   = .00002053
INCLINATION    = 97.2838
RA_OF_ASC_NODE = 107.7098
ARG_OF_PERICENTER = 115.7857
MEAN_ANOMALY   = 244.3432

EPHEMERIS_TYPE = 0
CLASSIFICATION_TYPE = U
NORAD_CAT_ID   = 67568
ELEMENT_SET_NO = 999
REV_AT_EPOCH   = 358
BSTAR          = .54448201E-3
MEAN_MOTION_DOT = .105599E-2
MEAN_MOTION_DDOT = 0

CCSDS_OMM_VERS = 2.0
CREATION_DATE  = 
ORIGINATOR     = 

OBJECT_NAME    = STARLINK-36575
OBJECT_ID      = 2026-016J
CENTER_NAME    = EARTH
REF_FRAME      = TEME
TIME_SYSTEM    = UTC
MEAN_ELEMENT_THEORY = SGP/SGP4

EPOCH          = 2026-02-17T05:40:11.649216
MEAN_MOTION    = 15.80858883
ECCENTRICITY   = .00016583
INCLINATION    = 97.2825
RA_OF_ASC_NODE = 107.7152
ARG_OF_PERICENTER = 108.7025
MEAN_ANOMALY   = 251.4424

EPHEMERIS_TYPE = 0
CLASSIFICATION_TYPE = U
NORAD_CAT_ID   = 67569
ELEMENT_SET_NO = 999
REV_AT_EPOCH   = 358
BSTAR          = .71017675E-3
MEAN_MOTION_DOT = .138341E-2
MEAN_MOTION_DDOT = 0

CCSDS_OMM_VERS = 2.0
CREATION_DATE  = 
ORIGINATOR     = 

OBJECT_NAME    = STARLINK-36562
OBJECT_ID      = 2026-016K
CENTER_NAME    = EARTH
REF_FRAME      = TEME
TIME_SYSTEM    = UTC
MEAN_ELEMENT_THEORY = SGP/SGP4

EPOCH          = 2026-02-17T05:38:52.924992
MEAN_MOTION    = 15.80878451
ECCENTRICITY   = .00017292
INCLINATION    = 97.2826
RA_OF_ASC_NODE = 107.7158
ARG_OF_PERICENTER = 77.3071
MEAN_ANOMALY   = 282.8390

EPHEMERIS_TYPE = 0
CLASSIFICATION_TYPE = U
NORAD_CAT_ID   = 67570
ELEMENT_SET_NO = 999
REV_AT_EPOCH   = 358
BSTAR          = .96631066E-3
MEAN_MOTION_DOT = .189572E-2
MEAN_MOTION_DDOT = 0

CCSDS_OMM_VERS = 2.0
CREATION_DATE  = 
ORIGINATOR     = 

OBJECT_NAME    = STARLINK-36578
OBJECT_ID      = 2026-016L
CENTER_NAME    = EARTH
REF_FRAME      = TEME
TIME_SYSTEM    = UTC
MEAN_ELEMENT_THEORY = SGP/SGP4

EPOCH          = 2026-02-17T06:17:45.331008
MEAN_MOTION    = 15.75203777
ECCENTRICITY   = .0001392
INCLINATION    = 97.2836
RA_OF_ASC_NODE = 107.6782
ARG_OF_PERICENTER = 113.0993
MEAN_ANOMALY   = 247.0419

EPHEMERIS_TYPE = 0
CLASSIFICATION_TYPE = U
NORAD_CAT_ID   = 67571
ELEMENT_SET_NO = 999
REV_AT_EPOCH   = 358
BSTAR          = .52773178E-3
MEAN_MOTION_DOT = .79367E-3
MEAN_MOTION_DDOT = 0

CCSDS_OMM_VERS = 2.0
CREATION_DATE  = 
ORIGINATOR     = 

OBJECT_NAME    = STARLINK-36350
OBJECT_ID      = 2026-016M
CENTER_NAME    = EARTH
REF_FRAME      = TEME
TIME_SYSTEM    = UTC
MEAN_ELEMENT_THEORY = SGP/SGP4

EPOCH          = 2026-02-17T06:06:34.499808
MEAN_MOTION    = 15.75218376
ECCENTRICITY   = .00016038
INCLINATION    = 97.2838
RA_OF_ASC_NODE = 107.6870
ARG_OF_PERICENTER = 91.8678
MEAN_ANOMALY   = 268.2771

EPHEMERIS_TYPE = 0
CLASSIFICATION_TYPE = U
NORAD_CAT_ID   = 67572
ELEMENT_SET_NO = 999
REV_AT_EPOCH   = 358
BSTAR          = .88049908E-3
MEAN_MOTION_DOT = .133438E-2
MEAN_MOTION_DDOT = 0

CCSDS_OMM_VERS = 2.0
CREATION_DATE  = 
ORIGINATOR     = 

OBJECT_NAME    = STARLINK-36588
OBJECT_ID      = 2026-016N
CENTER_NAME    = EARTH
REF_FRAME      = TEME
TIME_SYSTEM    = UTC
MEAN_ELEMENT_THEORY = SGP/SGP4

EPOCH          = 2026-02-17T06:09:37.525248
MEAN_MOTION    = 15.75217627
ECCENTRICITY   = .0001707
INCLINATION    = 97.2838
RA_OF_ASC_NODE = 107.6855
ARG_OF_PERICENTER = 86.9352
MEAN_ANOMALY   = 273.2108

EPHEMERIS_TYPE = 0
CLASSIFICATION_TYPE = U
NORAD_CAT_ID   = 67573
ELEMENT_SET_NO = 999
REV_AT_EPOCH   = 358
BSTAR          = .62680569E-3
MEAN_MOTION_DOT = .94518E-3
MEAN_MOTION_DDOT = 0

CCSDS_OMM_VERS = 2.0
CREATION_DATE  = 
ORIGINATOR     = 

OBJECT_NAME    = STARLINK-36594
OBJECT_ID      = 2026-016P
CENTER_NAME    = EARTH
REF_FRAME      = TEME
TIME_SYSTEM    = UTC
MEAN_ELEMENT_THEORY = SGP/SGP4

EPOCH          = 2026-02-17T04:00:56.509344
MEAN_MOTION    = 15.80888730
ECCENTRICITY   = .00014068
INCLINATION    = 97.2832
RA_OF_ASC_NODE = 107.6540
ARG_OF_PERICENTER = 71.3383
MEAN_ANOMALY   = 288.8038

EPHEMERIS_TYPE = 0
CLASSIFICATION_TYPE = U
NORAD_CAT_ID   = 67574
ELEMENT_SET_NO = 999
REV_AT_EPOCH   = 357
BSTAR          = .98388305E-3
MEAN_MOTION_DOT = .19319E-2
MEAN_MOTION_DDOT = 0

CCSDS_OMM_VERS = 2.0
CREATION_DATE  = 
ORIGINATOR     = 

OBJECT_NAME    = STARLINK-36400
OBJECT_ID      = 2026-016Q
CENTER_NAME    = EARTH
REF_FRAME      = TEME
TIME_SYSTEM    = UTC
MEAN_ELEMENT_THEORY = SGP/SGP4

EPOCH          = 2026-02-17T06:00:02.000160
MEAN_MOTION    = 15.75287064
ECCENTRICITY   = .00013566
INCLINATION    = 97.2836
RA_OF_ASC_NODE = 107.7207
ARG_OF_PERICENTER = 79.6159
MEAN_ANOMALY   = 342.7316

EPHEMERIS_TYPE = 0
CLASSIFICATION_TYPE = U
NORAD_CAT_ID   = 67575
ELEMENT_SET_NO = 999
REV_AT_EPOCH   = 470
BSTAR          = -.12902601E-2
MEAN_MOTION_DOT = -.18918E-2
MEAN_MOTION_DDOT = 0

CCSDS_OMM_VERS = 2.0
CREATION_DATE  = 
ORIGINATOR     = 

OBJECT_NAME    = STARLINK-36591
OBJECT_ID      = 2026-016R
CENTER_NAME    = EARTH
REF_FRAME      = TEME
TIME_SYSTEM    = UTC
MEAN_ELEMENT_THEORY = SGP/SGP4

EPOCH          = 2026-02-17T07:00:29.981088
MEAN_MOTION    = 15.80001560
ECCENTRICITY   = .00017178
INCLINATION    = 97.2837
RA_OF_ASC_NODE = 107.7907
ARG_OF_PERICENTER = 8.2655
MEAN_ANOMALY   = 351.8641

EPHEMERIS_TYPE = 0
CLASSIFICATION_TYPE = U
NORAD_CAT_ID   = 67576
ELEMENT_SET_NO = 999
REV_AT_EPOCH   = 359
BSTAR          = -.36799645E-2
MEAN_MOTION_DOT = -.632328E-2
MEAN_MOTION_DDOT = 0

